{
    "links": {
        "self": "http://www.neowsapp.com/rest/v1/neo/3397496?api_key=iIulBulltgU6a56xZRHN4H3l9WmuAYTsLGpBGhQ2"
    },
    "id": "3397496",
    "neo_reference_id": "3397496",
    "name": "(2007 XP)",
    "designation": "2007 XP",
    "nasa_jpl_url": "http://ssd.jpl.nasa.gov/sbdb.cgi?sstr=3397496",
    "absolute_magnitude_h": 23.753,
    "estimated_diameter": {
        "kilometers": {
            "estimated_diameter_min": 0.0472014105,
            "estimated_diameter_max": 0.1055455625
        },
        "meters": {
            "estimated_diameter_min": 47.2014104933,
            "estimated_diameter_max": 105.5455624969
        },
        "miles": {
            "estimated_diameter_min": 0.0293295876,
            "estimated_diameter_max": 0.0655829517
        },
        "feet": {
            "estimated_diameter_min": 154.8602756029,
            "estimated_diameter_max": 346.2781032624
        }
    },
    "is_potentially_hazardous_asteroid": false,
    "close_approach_data": [
        {
            "close_approach_date": "2006-12-02",
            "close_approach_date_full": "2006-Dec-02 03:05",
            "epoch_date_close_approach": 1165028700000,
            "relative_velocity": {
                "kilometers_per_second": "11.5111616365",
                "kilometers_per_hour": "41440.1818914403",
                "miles_per_hour": "25749.3174647119"
            },
            "miss_distance": {
                "astronomical": "0.079740287",
                "lunar": "31.018971643",
                "kilometers": "11928977.08838869",
                "miles": "7412322.648756322"
            },
            "orbiting_body": "Earth"
        },
        {
            "close_approach_date": "2007-11-30",
            "close_approach_date_full": "2007-Nov-30 06:08",
            "epoch_date_close_approach": 1196402880000,
            "relative_velocity": {
                "kilometers_per_second": "8.0862740051",
                "kilometers_per_hour": "29110.5864185289",
                "miles_per_hour": "18088.1863221131"
            },
            "miss_distance": {
                "astronomical": "0.0509040017",
                "lunar": "19.8016566613",
                "kilometers": "7615130.228796379",
                "miles": "4731822.5066488702"
            },
            "orbiting_body": "Earth"
        }
    ],
    "orbital_data": {
        "orbit_id": "7",
        "orbit_determination_date": "2017-04-06 09:04:59",
        "first_observation_date": "2007-12-04",
        "last_observation_date": "2007-12-06",
        "data_arc_in_days": 2,
        "observations_used": 16,
        "orbit_uncertainty": "9",
        "minimum_orbit_intersection": ".0199883",
        "jupiter_tisserand_invariant": "6.106",
        "epoch_osculation": "2454439.5",
        "eccentricity": ".2707601147782149",
        "semi_major_axis": ".9863128073336546",
        "inclination": "7.650401786213624",
        "ascending_node_longitude": "255.6741674799257",
        "orbital_period": "357.7836049610689",
        "perihelion_distance": ".7192586384127709",
        "perihelion_argument": "64.6824869859926",
        "aphelion_distance": "1.253366976254538",
        "perihelion_time": "2454356.500227453088",
        "mean_anomaly": "83.5139388797304",
        "mean_motion": "1.006194792070398",
        "equinox": "J2000",
        "orbit_class": {
            "orbit_class_type": "ATE",
            "orbit_class_description": "Near-Earth asteroid orbits similar to that of 2062 Aten",
            "orbit_class_range": "a (semi-major axis) < 1.0 AU; q (perihelion) > 0.983 AU"
        }
    },
    "is_sentry_object": false
}